<?xml version="1.0" encoding="UTF-8"?>
<kml xmlns="http://www.opengis.net/kml/2.2" xmlns:gx="http://www.google.com/kml/ext/2.2" xmlns:kml="http://www.opengis.net/kml/2.2" xmlns:atom="http://www.w3.org/2005/Atom">
<Document id="1JrUVCA0NR21FjOAQ7MzSKAAuiHks5PpZ">
	<name>Investigation Marfa</name>
	<gx:CascadingStyle kml:id="__managed_style_0AF8E2C7AE421CDDB7F0_highlight">
		<Style>
			<IconStyle>
				<scale>1.2</scale>
				<Icon>
					<href>https://earth.google.com/earth/document/icon?color=1976d2&amp;id=2000&amp;scale=4</href>
				</Icon>
				<hotSpot x="64" y="128" xunits="pixels" yunits="insetPixels"/>
			</IconStyle>
			<LabelStyle>
			</LabelStyle>
			<LineStyle>
				<color>ff9f3f30</color>
				<width>6</width>
			</LineStyle>
			<PolyStyle>
				<color>40ffffff</color>
			</PolyStyle>
			<BalloonStyle>
			</BalloonStyle>
		</Style>
	</gx:CascadingStyle>
	<gx:CascadingStyle kml:id="__managed_style_0AF8E2C7AE421CDDB7F0_normal">
		<Style>
			<IconStyle>
				<Icon>
					<href>https://earth.google.com/earth/document/icon?color=1976d2&amp;id=2000&amp;scale=4</href>
				</Icon>
				<hotSpot x="64" y="128" xunits="pixels" yunits="insetPixels"/>
			</IconStyle>
			<LabelStyle>
			</LabelStyle>
			<LineStyle>
				<color>ff9f3f30</color>
				<width>4</width>
			</LineStyle>
			<PolyStyle>
				<color>40ffffff</color>
			</PolyStyle>
			<BalloonStyle>
			</BalloonStyle>
		</Style>
	</gx:CascadingStyle>
	<gx:CascadingStyle kml:id="__managed_style_0D9AA66B32421CDA4800_highlight">
		<Style>
			<IconStyle>
				<scale>1.2</scale>
				<Icon>
					<href>https://earth.google.com/earth/document/icon?color=1976d2&amp;id=2000&amp;scale=4</href>
				</Icon>
				<hotSpot x="64" y="128" xunits="pixels" yunits="insetPixels"/>
			</IconStyle>
			<LabelStyle>
			</LabelStyle>
			<LineStyle>
				<color>ff9f3f30</color>
				<width>6</width>
			</LineStyle>
			<PolyStyle>
				<color>40ffffff</color>
			</PolyStyle>
			<BalloonStyle>
			</BalloonStyle>
		</Style>
	</gx:CascadingStyle>
	<gx:CascadingStyle kml:id="__managed_style_0C5E0125EC421CD59234_highlight">
		<Style>
			<IconStyle>
				<scale>1.8</scale>
				<Icon>
					<href>https://earth.google.com/earth/document/icon?color=7b1fa2&amp;id=2002&amp;scale=4</href>
				</Icon>
				<hotSpot x="64" y="128" xunits="pixels" yunits="insetPixels"/>
			</IconStyle>
			<LabelStyle>
			</LabelStyle>
			<LineStyle>
				<color>ff2dc0fb</color>
				<width>6</width>
			</LineStyle>
			<PolyStyle>
				<color>40ffffff</color>
			</PolyStyle>
			<BalloonStyle>
			</BalloonStyle>
		</Style>
	</gx:CascadingStyle>
	<gx:CascadingStyle kml:id="__managed_style_0C5E0125EC421CD59234_normal">
		<Style>
			<IconStyle>
				<scale>1.5</scale>
				<Icon>
					<href>https://earth.google.com/earth/document/icon?color=7b1fa2&amp;id=2002&amp;scale=4</href>
				</Icon>
				<hotSpot x="64" y="128" xunits="pixels" yunits="insetPixels"/>
			</IconStyle>
			<LabelStyle>
			</LabelStyle>
			<LineStyle>
				<color>ff2dc0fb</color>
				<width>4</width>
			</LineStyle>
			<PolyStyle>
				<color>40ffffff</color>
			</PolyStyle>
			<BalloonStyle>
			</BalloonStyle>
		</Style>
	</gx:CascadingStyle>
	<StyleMap id="__managed_style_0C5E0125EC421CD59234">
		<Pair>
			<key>normal</key>
			<styleUrl>#__managed_style_0C5E0125EC421CD59234_normal</styleUrl>
		</Pair>
		<Pair>
			<key>highlight</key>
			<styleUrl>#__managed_style_0C5E0125EC421CD59234_highlight</styleUrl>
		</Pair>
	</StyleMap>
	<gx:CascadingStyle kml:id="__managed_style_0543261D10421CD59233_highlight">
		<styleUrl>https://earth.google.com/balloon_components/base/1.1.0.0/card_template.kml#main</styleUrl>
		<Style>
			<IconStyle>
				<scale>0.9</scale>
				<Icon>
					<href>https://earth.google.com/earth/document/icon?color=f57c00&amp;id=2000&amp;scale=4</href>
				</Icon>
				<hotSpot x="64" y="128" xunits="pixels" yunits="insetPixels"/>
			</IconStyle>
			<LabelStyle>
			</LabelStyle>
			<LineStyle>
				<color>ff2dc0fb</color>
				<width>6</width>
			</LineStyle>
			<PolyStyle>
				<color>40ffffff</color>
			</PolyStyle>
			<BalloonStyle>
			</BalloonStyle>
		</Style>
	</gx:CascadingStyle>
	<gx:CascadingStyle kml:id="__managed_style_02A93015A8421CD59230_highlight">
		<Style>
			<IconStyle>
				<scale>1.2</scale>
				<Icon>
					<href>https://earth.google.com/earth/document/icon?color=1976d2&amp;id=2000&amp;scale=4</href>
				</Icon>
				<hotSpot x="64" y="128" xunits="pixels" yunits="insetPixels"/>
			</IconStyle>
			<LabelStyle>
			</LabelStyle>
			<LineStyle>
				<color>ff2dc0fb</color>
				<width>6</width>
			</LineStyle>
			<PolyStyle>
				<color>40ffffff</color>
			</PolyStyle>
			<BalloonStyle>
			</BalloonStyle>
		</Style>
	</gx:CascadingStyle>
	<StyleMap id="__managed_style_0AF8E2C7AE421CDDB7F0">
		<Pair>
			<key>normal</key>
			<styleUrl>#__managed_style_0AF8E2C7AE421CDDB7F0_normal</styleUrl>
		</Pair>
		<Pair>
			<key>highlight</key>
			<styleUrl>#__managed_style_0AF8E2C7AE421CDDB7F0_highlight</styleUrl>
		</Pair>
	</StyleMap>
	<gx:CascadingStyle kml:id="__managed_style_0D9AA66B32421CDA4800_normal">
		<Style>
			<IconStyle>
				<Icon>
					<href>https://earth.google.com/earth/document/icon?color=1976d2&amp;id=2000&amp;scale=4</href>
				</Icon>
				<hotSpot x="64" y="128" xunits="pixels" yunits="insetPixels"/>
			</IconStyle>
			<LabelStyle>
			</LabelStyle>
			<LineStyle>
				<color>ff9f3f30</color>
				<width>4</width>
			</LineStyle>
			<PolyStyle>
				<color>40ffffff</color>
			</PolyStyle>
			<BalloonStyle>
			</BalloonStyle>
		</Style>
	</gx:CascadingStyle>
	<gx:CascadingStyle kml:id="__managed_style_02A93015A8421CD59230_normal">
		<Style>
			<IconStyle>
				<Icon>
					<href>https://earth.google.com/earth/document/icon?color=1976d2&amp;id=2000&amp;scale=4</href>
				</Icon>
				<hotSpot x="64" y="128" xunits="pixels" yunits="insetPixels"/>
			</IconStyle>
			<LabelStyle>
			</LabelStyle>
			<LineStyle>
				<color>ff2dc0fb</color>
				<width>4</width>
			</LineStyle>
			<PolyStyle>
				<color>40ffffff</color>
			</PolyStyle>
			<BalloonStyle>
			</BalloonStyle>
		</Style>
	</gx:CascadingStyle>
	<StyleMap id="__managed_style_02A93015A8421CD59230">
		<Pair>
			<key>normal</key>
			<styleUrl>#__managed_style_02A93015A8421CD59230_normal</styleUrl>
		</Pair>
		<Pair>
			<key>highlight</key>
			<styleUrl>#__managed_style_02A93015A8421CD59230_highlight</styleUrl>
		</Pair>
	</StyleMap>
	<gx:CascadingStyle kml:id="__managed_style_0543261D10421CD59233_normal">
		<styleUrl>https://earth.google.com/balloon_components/base/1.1.0.0/card_template.kml#main</styleUrl>
		<Style>
			<IconStyle>
				<scale>0.75</scale>
				<Icon>
					<href>https://earth.google.com/earth/document/icon?color=f57c00&amp;id=2000&amp;scale=4</href>
				</Icon>
				<hotSpot x="64" y="128" xunits="pixels" yunits="insetPixels"/>
			</IconStyle>
			<LabelStyle>
			</LabelStyle>
			<LineStyle>
				<color>ff2dc0fb</color>
				<width>4</width>
			</LineStyle>
			<PolyStyle>
				<color>40ffffff</color>
			</PolyStyle>
			<BalloonStyle>
			</BalloonStyle>
		</Style>
	</gx:CascadingStyle>
	<StyleMap id="__managed_style_0D9AA66B32421CDA4800">
		<Pair>
			<key>normal</key>
			<styleUrl>#__managed_style_0D9AA66B32421CDA4800_normal</styleUrl>
		</Pair>
		<Pair>
			<key>highlight</key>
			<styleUrl>#__managed_style_0D9AA66B32421CDA4800_highlight</styleUrl>
		</Pair>
	</StyleMap>
	<StyleMap id="__managed_style_0543261D10421CD59233">
		<Pair>
			<key>normal</key>
			<styleUrl>#__managed_style_0543261D10421CD59233_normal</styleUrl>
		</Pair>
		<Pair>
			<key>highlight</key>
			<styleUrl>#__managed_style_0543261D10421CD59233_highlight</styleUrl>
		</Pair>
	</StyleMap>
	<Placemark id="0E974B7B84421CBBEA5E">
		<name>92521 United States Hwy 67/90</name>
		<description><![CDATA[<div>Marfa Light Viewing Area</div>]]></description>
		<LookAt>
			<longitude>-103.8827973</longitude>
			<latitude>30.2751108</latitude>
			<altitude>0</altitude>
			<heading>0</heading>
			<tilt>0</tilt>
			<gx:fovy>35</gx:fovy>
			<range>897.5266365859159</range>
			<altitudeMode>relativeToGround</altitudeMode>
		</LookAt>
		<styleUrl>#__managed_style_0543261D10421CD59233</styleUrl>
		<Point>
			<altitudeMode>relativeToGround</altitudeMode>
			<coordinates>-103.8827973,30.2751108,0</coordinates>
		</Point>
	</Placemark>
	<Placemark id="0269C3E7E2421CCCE7B4">
		<name>Shafer to Marfa</name>
		<LookAt>
			<longitude>-104.0200489197463</longitude>
			<latitude>30.30839488702864</latitude>
			<altitude>1428.500756941668</altitude>
			<heading>3.566489274436395</heading>
			<tilt>35.08440401071667</tilt>
			<gx:fovy>35</gx:fovy>
			<range>1633.25329819374</range>
			<altitudeMode>absolute</altitudeMode>
		</LookAt>
		<styleUrl>#__managed_style_02A93015A8421CD59230</styleUrl>
		<LineString>
			<coordinates>
				-104.3068420623989,29.81756096297963,0 -104.3064087431173,29.8182255936912,0 -104.3058394178488,29.8200553405063,0 -104.3057443898709,29.82083571249257,0 -104.3059643300045,29.82193729957984,0 -104.3063020286597,29.82252995527182,0 -104.3071340049386,29.82328188998843,0 -104.3089483168564,29.82477489068233,0 -104.3097443069229,29.82574017649982,0 -104.3103351557044,29.82700130624798,0 -104.3106206686784,29.82839702517394,0 -104.3109033141466,29.82931168267944,0 -104.3112589841079,29.8305600574114,0 -104.3113478310685,29.83206041321601,0 -104.3110304685476,29.83298421804071,0 -104.3103360020434,29.8338529873552,0 -104.3073023695069,29.83725589502076,0 -104.3068670822147,29.83812263088339,0 -104.3063889187828,29.83928374984965,0 -104.3059800803525,29.83982110915223,0 -104.3052023626782,29.84036592694098,0 -104.3043467969846,29.84091073169814,0 -104.3037668397581,29.84155431774727,0 -104.3033012744982,29.84239187464353,0 -104.3024973787458,29.84420116153108,0 -104.3019285069102,29.84482959091658,0 -104.3006568440604,29.84557065158878,0 -104.299670022871,29.84601999010174,0 -104.2981213306152,29.84649836759842,0 -104.2968154663157,29.84656250975428,0 -104.294637942891,29.84657960802531,0 -104.2924627750583,29.84695310223534,0 -104.2907465093509,29.847504528622,0 -104.2899703398419,29.84819931262226,0 -104.2893821241601,29.8489581922455,0 -104.2890931587948,29.84982957604017,0 -104.2891101169251,29.85081675788835,0 -104.2894693795932,29.85173742596382,0 -104.2914394965364,29.85597597548279,0 -104.29205692898,29.8575178202395,0 -104.2921520626295,29.85825663276811,0 -104.2921251096233,29.85890305151728,0 -104.2916016668852,29.86303024303553,0 -104.2914191553678,29.86465611425405,0 -104.2911923431008,29.86516993345811,0 -104.2877384712732,29.86923936441041,0 -104.2870990511387,29.87033392663296,0 -104.2852688125272,29.87372074577847,0 -104.2846416064561,29.874553240456,0 -104.2832064596519,29.87561179294223,0 -104.2797912584363,29.87720809902329,0 -104.2786139379554,29.87786272256887,0 -104.2778915433187,29.8783723285905,0 -104.2775101201026,29.87902065221177,0 -104.2770775070756,29.88001982051618,0 -104.2768837143024,29.8804909067959,0 -104.276332247076,29.88203431147253,0 -104.2757267334219,29.88460431469171,0 -104.2745066446602,29.89025389725786,0 -104.2733711695585,29.89597577823787,0 -104.2721998312361,29.9016110969793,0 -104.270996458242,29.90727107104982,0 -104.2692660854993,29.91554721255931,0 -104.268591047113,29.91752896015971,0 -104.2652947805734,29.92613114453619,0 -104.2638808087474,29.92989801470807,0 -104.2634215581493,29.93065665598636,0 -104.2619340773129,29.93283033284572,0 -104.2570491178587,29.93840539838886,0 -104.2545254355704,29.94132919049403,0 -104.2533663165618,29.94200635016071,0 -104.2484278867386,29.94415619403702,0 -104.2464499703889,29.9450495018803,0 -104.2435318998843,29.94606952946829,0 -104.242050552293,29.94659048949066,0 -104.2403882303521,29.9473233939772,0 -104.2386378892504,29.94810024003054,0 -104.2363994683417,29.94908742379853,0 -104.2356849213278,29.94952297931287,0 -104.2347866972121,29.95018189910165,0 -104.234300386879,29.95072989422962,0 -104.2337000483343,29.95153255200326,0 -104.2331073602584,29.95258378697439,0 -104.232804718868,29.95370790589603,0 -104.232578982263,29.95638672662411,0 -104.2322245199498,29.95993516567616,0 -104.2319917042562,29.96096739627586,0 -104.231396021894,29.96231018670417,0 -104.2296821835096,29.96548394056536,0 -104.2285585259122,29.96763301276668,0 -104.2281771767972,29.96824116805689,0 -104.2276772435517,29.96873549230605,0 -104.225584545114,29.97088183403106,0 -104.2247912124835,29.97168772770151,0 -104.22438495374,29.97236624556488,0 -104.2238118075133,29.97420519706604,0 -104.2228384251012,29.97744188340234,0 -104.2216710560023,29.98122617122696,0 -104.2212895443556,29.98273987430414,0 -104.2208650045615,29.98460355997899,0 -104.2204648951259,29.9867429419899,0 -104.2198585256962,29.98949433947102,0 -104.2194955291804,29.99145573796254,0 -104.2191943029226,29.99269662352558,0 -104.2188186078605,29.99433570296716,0 -104.2185541104405,29.99563733820457,0 -104.2183576155611,29.99679566959885,0 -104.2180014754737,29.99840026310619,0 -104.217481355078,30.00080804113283,0 -104.2169254067018,30.00334804356711,0 -104.2164724459909,30.00475881788778,0 -104.2160181077535,30.00579010587405,0 -104.215280957223,30.007141626838,0 -104.2138263862834,30.00956057022798,0 -104.2118988196953,30.01270989887835,0 -104.2090336137515,30.01760471262548,0 -104.2067712064618,30.0214354748504,0 -104.2055024235389,30.02348795455949,0 -104.2029487520977,30.02777856730539,0 -104.201631868578,30.02988336557137,0 -104.2009336613223,30.03098015731151,0 -104.2003659947474,30.03171072332697,0 -104.1992791210029,30.03297545256221,0 -104.1980295580586,30.03442038982795,0 -104.1969187580163,30.0357007316735,0 -104.1960436765061,30.03671962530018,0 -104.1953372204254,30.03754614669982,0 -104.1946052307165,30.0384433667576,0 -104.1939007822371,30.03896711052769,0 -104.1923753881127,30.03995825247501,0 -104.1912497394993,30.04076235962288,0 -104.19051629798,30.04142095640669,0 -104.1896188967298,30.04248171739789,0 -104.1883447046174,30.04413695027112,0 -104.1869633856737,30.04587807813614,0 -104.1854763308,30.04788617846879,0 -104.1840723362078,30.04969153885274,0 -104.1829197168063,30.05114890327408,0 -104.1826057918458,30.0516003192769,0 -104.1821408560199,30.0530876796221,0 -104.1813286924156,30.0554800490764,0 -104.1799482168776,30.05942025819505,0 -104.179436672901,30.06090456251039,0 -104.1791087537709,30.06146410877023,0 -104.1787118610246,30.06203024934862,0 -104.1779245668982,30.06278784309471,0 -104.176035400717,30.06475796030146,0 -104.1737000422239,30.06721731143502,0 -104.171256640638,30.06972249598777,0 -104.1700680291554,30.07091238604743,0 -104.1693703384793,30.07166857696491,0 -104.1688337464275,30.07237434073792,0 -104.1684827635727,30.07303860293587,0 -104.1682492030873,30.07423230945743,0 -104.1684241053746,30.07516556921964,0 -104.1687553469684,30.07645831150673,0 -104.1697291394105,30.08111469329126,0 -104.1703000055014,30.08355910723253,0 -104.1705283366182,30.08475787864759,0 -104.1704920185664,30.08561353359697,0 -104.1702262319748,30.0864339957704,0 -104.1690178222812,30.08867493539746,0 -104.1684704504684,30.08967427916977,0 -104.1680533443774,30.09032823048379,0 -104.1676485383558,30.09108002622995,0 -104.16718021393,30.09168831086208,0 -104.1668519665059,30.09197346416095,0 -104.1658143620153,30.09289422963062,0 -104.1648839530556,30.09354252594951,0 -104.1633143793283,30.09474479933792,0 -104.1622202502504,30.09550675554927,0 -104.1611439616634,30.09628898347151,0 -104.1600116942973,30.09710834326302,0 -104.1590436714781,30.09785778465743,0 -104.1548714186668,30.10087182298101,0 -104.1523372151632,30.10271965231643,0 -104.1496628713626,30.10469665020954,0 -104.1473264889513,30.10645079039519,0 -104.1457640720395,30.10756907893317,0 -104.1437513778773,30.10900121416356,0 -104.1424005941038,30.11006441197323,0 -104.1414770173067,30.11093461883649,0 -104.1402370148599,30.1123022690031,0 -104.1386953853118,30.11424668538738,0 -104.1362984900656,30.11713070073645,0 -104.1347140129941,30.1191676951222,0 -104.1328139267984,30.12143655467377,0 -104.1315976220062,30.12295701558528,0 -104.1299949570833,30.12480328029768,0 -104.1289268293657,30.12610643254914,0 -104.1274020470897,30.12791808258941,0 -104.1261056139438,30.12949000115235,0 -104.1245034970136,30.1315291551991,0 -104.1229969320307,30.1333562157003,0 -104.1207086610713,30.13611406907203,0 -104.1194466582802,30.13761678018314,0 -104.1182515867259,30.13909676808296,0 -104.1171008627308,30.14053402325979,0 -104.1164867670948,30.14123756751127,0 -104.1149838572178,30.14256978604,0 -104.1125430574926,30.14483961958062,0 -104.1088079227846,30.14830580735523,0 -104.1050821304862,30.15178883611006,0 -104.1011262041321,30.15547429480466,0 -104.0959653734824,30.16033669206811,0 -104.0928774529919,30.16317543151654,0 -104.0903921861468,30.16544654798094,0 -104.0881700223726,30.16751076841851,0 -104.0857504641988,30.16976493962752,0 -104.0840669985639,30.1713906894042,0 -104.0829872549961,30.17266948090132,0 -104.0818749765737,30.17436658203165,0 -104.081006983437,30.17621959431845,0 -104.0800003581571,30.1786640537511,0 -104.0781398148564,30.18323774600504,0 -104.0761113718421,30.1881055921746,0 -104.0745550738028,30.19205599765399,0 -104.0729626440746,30.19589064505189,0 -104.0716031109499,30.19930680837061,0 -104.0702409543907,30.20242228673748,0 -104.0683373970737,30.2073299496889,0 -104.0665667993315,30.21158638543937,0 -104.0657557366278,30.2136266274357,0 -104.0639061386817,30.21811446755297,0 -104.0625573326663,30.22141090160557,0 -104.0606727168485,30.22583363723031,0 -104.0588744138472,30.23011239538659,0 -104.0574643043143,30.23339537048857,0 -104.055446465814,30.23810036303872,0 -104.0536405092428,30.24227921343468,0 -104.0515912000959,30.2471328312,0 -104.0492290267024,30.25261144281672,0 -104.0477057127949,30.25619713238004,0 -104.0454492438679,30.26148838939659,0 -104.0438619307508,30.26505695494385,0 -104.042995221709,30.26698069073702,0 -104.0426460525552,30.26760328058507,0 -104.0410481466038,30.26969754991386,0 -104.0396425763715,30.27139751931327,0 -104.038643668903,30.27277885415485,0 -104.0377440451961,30.27391114952545,0 -104.03681298208,30.27498859472507,0 -104.0346157629822,30.27787762357332,0 -104.0328845014689,30.28006343559779,0 -104.0273725875715,30.28699536543687,0 -104.0256799191339,30.28912044951603,0 -104.0250907526029,30.28987803681871,0 -104.0246389257655,30.29070663617824,0 -104.0239740785121,30.29206602190568,0 -104.023045798468,30.29458423316964,0 -104.0220330080495,30.29738197726527,0 -104.0209332043102,30.30062826254185,0 -104.0201259397416,30.30279994413131,0 -104.0193236286464,30.30537069826777,0 -104.0193356123505,30.30581697602204,0 -104.0195519403134,30.30649765188985,0 -104.0200477217941,30.30792993202037,0 -104.0205957269664,30.30950463225603,0 
			</coordinates>
		</LineString>
	</Placemark>
	<Placemark id="00D2DB492F421CCDDDD8">
		<name>Highway High-Point</name>
		<LookAt>
			<longitude>-104.1945003615088</longitude>
			<latitude>30.03838982429141</latitude>
			<altitude>1650.182465561744</altitude>
			<heading>3.208998196238153</heading>
			<tilt>0</tilt>
			<gx:fovy>35</gx:fovy>
			<range>454.0219609562337</range>
			<altitudeMode>absolute</altitudeMode>
		</LookAt>
		<styleUrl>#__managed_style_0C5E0125EC421CD59234</styleUrl>
		<Point>
			<coordinates>-104.1945191479914,30.03839753506458,1650.182461776145</coordinates>
		</Point>
	</Placemark>
	<Placemark id="0281B74F6C421CDA1788">
		<name>Left Line</name>
		<LookAt>
			<longitude>-104.1954082620275</longitude>
			<latitude>30.03859793755443</latitude>
			<altitude>1649.208468779803</altitude>
			<heading>2.850901009853041</heading>
			<tilt>0</tilt>
			<gx:fovy>35</gx:fovy>
			<range>519.3841354515463</range>
			<altitudeMode>absolute</altitudeMode>
		</LookAt>
		<styleUrl>#__managed_style_0D9AA66B32421CDA4800</styleUrl>
		<LineString>
			<coordinates>
				-103.882798323996,30.27511351177044,0 -104.1945189094492,30.03840092715847,0 
			</coordinates>
		</LineString>
	</Placemark>
	<Placemark id="0EA4222B68421CDD9A71">
		<name>Right Line</name>
		<LookAt>
			<longitude>-104.0250364950034</longitude>
			<latitude>30.29147999745912</latitude>
			<altitude>1419.672006077371</altitude>
			<heading>2.850901008839347</heading>
			<tilt>0</tilt>
			<gx:fovy>35</gx:fovy>
			<range>525.9904002418625</range>
			<altitudeMode>absolute</altitudeMode>
		</LookAt>
		<styleUrl>#__managed_style_0AF8E2C7AE421CDDB7F0</styleUrl>
		<LineString>
			<coordinates>
				-103.882798757371,30.27511323297174,0 -104.0246141973504,30.29074664763763,0 
			</coordinates>
		</LineString>
	</Placemark>
</Document>
</kml>
