<?xml version="1.0" encoding="UTF-8"?>
<kml xmlns="http://www.opengis.net/kml/2.2"><Document><name>Map 1 — US-67 visibility, standard atmosphere (k = 0.13)</name>
<description><![CDATA[Terrain: USGS 3DEP 1 m lidar (TX_WestTexas_2018_D19), else 1/3", else 1"; point-cloud obstructions (dense) where measured; see data/dem/MANIFEST.json. Eye 1.6 m above the platform; headlamp 0.66 m; terrain sampled 2 m within 3 km of either end, else 5 m. 'Visible' = seen in >= 95% of Monte Carlo draws (DEM and eye-height errors) and still seen under 0.25 m of grass; 'Hidden' = seen in <= 5%; else 'Marginal'.]]></description>
<Style id="edge"><LineStyle><color>80ffffff</color><width>1.5</width></LineStyle></Style>
<Style id="viewer"><IconStyle><color>ff007cf5</color><scale>1.3</scale><Icon><href>http://maps.google.com/mapfiles/kml/shapes/star.png</href></Icon></IconStyle></Style>
<Style id="run"><IconStyle><color>ff7ae01f</color><scale>0.8</scale><Icon><href>http://maps.google.com/mapfiles/kml/shapes/shaded_dot.png</href></Icon></IconStyle><LabelStyle><scale>0.7</scale></LabelStyle></Style>
<Style id="vis"><LineStyle><color>ff7a9e1f</color><width>6</width></LineStyle></Style><Style id="marg"><LineStyle><color>ff1bb2e0</color><width>5</width></LineStyle></Style><Style id="hid"><LineStyle><color>ff94988d</color><width>3</width></LineStyle></Style>
<Placemark><name>Marfa Lights Viewing Area (eye 1.6 m, ground 1494.8 m)</name><styleUrl>#viewer</styleUrl><Point><coordinates>-103.8827973,30.2751108,0</coordinates></Point></Placemark>
<Placemark><name>Fan edge 157.3°</name><styleUrl>#edge</styleUrl><LineString><tessellate>1</tessellate><coordinates>-103.8827973,30.2751108,0 -103.702816,29.900558,0</coordinates></LineString></Placemark><Placemark><name>Fan edge 277.3°</name><styleUrl>#edge</styleUrl><LineString><tessellate>1</tessellate><coordinates>-103.8827973,30.2751108,0 -104.346954,30.325698,0</coordinates></LineString></Placemark><Folder><name>Visible — robust to DEM, eye-height and grass uncertainty</name><Placemark><name>Visible — robust to DEM, eye-height and grass uncertainty</name><description><![CDATA[Chainage 28.92–29.58 km from Shafter end<br>Azimuth 228.92–228.95°, distance 39.9–39.3 km<br>Road elevation 1635–1650 m<br>Clearance at k=0.13: -0.3 to 0.8 m<br>k_crit (headlight): -3.29 to 1.16]]></description><styleUrl>#vis</styleUrl><LineString><tessellate>1</tessellate><altitudeMode>clampToGround</altitudeMode><coordinates>-104.194995,30.037933,0 -104.194602,30.038352,0 -104.194174,30.038745,0 -104.193724,30.039117,0 -104.193228,30.039444,0 -104.192733,30.039772,0 -104.192237,30.040099,0 -104.191748,30.040433,0 -104.191270,30.040779,0 -104.190826,30.041158,0 -104.190401,30.041553,0 -104.190024,30.041983,0</coordinates></LineString></Placemark><Placemark><name>Visible — robust to DEM, eye-height and grass uncertainty</name><description><![CDATA[Chainage 29.94–30.66 km from Shafter end<br>Azimuth 229.08–229.36°, distance 38.9–38.2 km<br>Road elevation 1591–1618 m<br>Clearance at k=0.13: -3.0 to 0.8 m<br>k_crit (headlight): -3.14 to 14.01]]></description><styleUrl>#vis</styleUrl><LineString><tessellate>1</tessellate><altitudeMode>clampToGround</altitudeMode><coordinates>-104.187937,30.044676,0 -104.187590,30.045125,0 -104.187243,30.045574,0 -104.186896,30.046023,0 -104.186549,30.046472,0 -104.186202,30.046922,0 -104.185855,30.047371,0 -104.185508,30.047820,0 -104.185161,30.048269,0 -104.184814,30.048718,0 -104.184467,30.049168,0 -104.184120,30.049617,0 -104.183772,30.050066,0</coordinates></LineString></Placemark><Placemark><name>Visible — robust to DEM, eye-height and grass uncertainty</name><description><![CDATA[Chainage 31.02–31.20 km from Shafter end<br>Azimuth 229.58–229.73°, distance 37.9–37.8 km<br>Road elevation 1570–1576 m<br>Clearance at k=0.13: -0.9 to 0.7 m<br>k_crit (headlight): -2.86 to 5.71]]></description><styleUrl>#vis</styleUrl><LineString><tessellate>1</tessellate><altitudeMode>clampToGround</altitudeMode><coordinates>-104.182200,30.052981,0 -104.182023,30.053499,0 -104.181845,30.054018,0 -104.181667,30.054537,0</coordinates></LineString></Placemark><Placemark><name>Visible — robust to DEM, eye-height and grass uncertainty</name><description><![CDATA[Chainage 31.44–31.50 km from Shafter end<br>Azimuth 229.93–229.98°, distance 37.6–37.5 km<br>Road elevation 1574–1575 m<br>Clearance at k=0.13: -0.4 to 0.5 m<br>k_crit (headlight): -1.17 to 4.51]]></description><styleUrl>#vis</styleUrl><LineString><tessellate>1</tessellate><altitudeMode>clampToGround</altitudeMode><coordinates>-104.180956,30.056611,0 -104.180779,30.057130,0</coordinates></LineString></Placemark><Placemark><name>Visible — robust to DEM, eye-height and grass uncertainty</name><description><![CDATA[Chainage 31.62–32.64 km from Shafter end<br>Azimuth 230.08–230.58°, distance 37.4–36.5 km<br>Road elevation 1557–1579 m<br>Clearance at k=0.13: 0.1 to 0.8 m<br>k_crit (headlight): -2.89 to -0.02]]></description><styleUrl>#vis</styleUrl><LineString><tessellate>1</tessellate><altitudeMode>clampToGround</altitudeMode><coordinates>-104.180423,30.058168,0 -104.180245,30.058686,0 -104.180068,30.059205,0 -104.179888,30.059723,0 -104.179707,30.060241,0 -104.179500,30.060751,0 -104.179240,30.061242,0 -104.178918,30.061705,0 -104.178550,30.062141,0 -104.178154,30.062559,0 -104.177756,30.062974,0 -104.177357,30.063390,0 -104.176959,30.063806,0 -104.176560,30.064222,0 -104.176162,30.064637,0 -104.175764,30.065053,0 -104.175365,30.065469,0 -104.174967,30.065885,0</coordinates></LineString></Placemark><Placemark><name>Visible — robust to DEM, eye-height and grass uncertainty</name><description><![CDATA[Chainage 32.76–33.36 km from Shafter end<br>Azimuth 230.61–230.79°, distance 36.4–35.8 km<br>Road elevation 1544–1557 m<br>Clearance at k=0.13: -0.7 to 0.7 m<br>k_crit (headlight): -2.70 to 3.49]]></description><styleUrl>#vis</styleUrl><LineString><tessellate>1</tessellate><altitudeMode>clampToGround</altitudeMode><coordinates>-104.174157,30.066706,0 -104.173745,30.067112,0 -104.173350,30.067531,0 -104.172956,30.067949,0 -104.172559,30.068366,0 -104.172158,30.068780,0 -104.171756,30.069193,0 -104.171354,30.069606,0 -104.170954,30.070021,0 -104.170558,30.070439,0 -104.170165,30.070859,0</coordinates></LineString></Placemark><Placemark><name>Visible — robust to DEM, eye-height and grass uncertainty</name><description><![CDATA[Chainage 35.10–35.22 km from Shafter end<br>Azimuth 232.94–233.04°, distance 34.7–34.6 km<br>Road elevation 1487–1492 m<br>Clearance at k=0.13: -2.9 to 0.8 m<br>k_crit (headlight): -2.06 to 36.83]]></description><styleUrl>#vis</styleUrl><LineString><tessellate>1</tessellate><altitudeMode>clampToGround</altitudeMode><coordinates>-104.170403,30.085897,0 -104.170198,30.086408,0 -104.169941,30.086901,0</coordinates></LineString></Placemark><Placemark><name>Visible — robust to DEM, eye-height and grass uncertainty</name><description><![CDATA[Chainage 35.28–35.34 km from Shafter end<br>Azimuth 233.09–233.13°, distance 34.6–34.5 km<br>Road elevation 1483–1485 m<br>Clearance at k=0.13: 0.0 to 0.7 m<br>k_crit (headlight): -0.57 to 0.09]]></description><styleUrl>#vis</styleUrl><LineString><tessellate>1</tessellate><altitudeMode>clampToGround</altitudeMode><coordinates>-104.169681,30.087393,0 -104.169421,30.087884,0</coordinates></LineString></Placemark><Placemark><name>Visible — robust to DEM, eye-height and grass uncertainty</name><description><![CDATA[Chainage 35.64–35.76 km from Shafter end<br>Azimuth 233.37–233.45°, distance 34.3–34.2 km<br>Road elevation 1471–1475 m<br>Clearance at k=0.13: -2.3 to 0.8 m<br>k_crit (headlight): -1.87 to 17.14]]></description><styleUrl>#vis</styleUrl><LineString><tessellate>1</tessellate><altitudeMode>clampToGround</altitudeMode><coordinates>-104.168080,30.090326,0 -104.167810,30.090813,0 -104.167482,30.091273,0</coordinates></LineString></Placemark><Placemark><name>Visible — robust to DEM, eye-height and grass uncertainty</name><description><![CDATA[Chainage 36.00–36.42 km from Shafter end<br>Azimuth 233.53–233.57°, distance 33.9–33.5 km<br>Road elevation 1458–1469 m<br>Clearance at k=0.13: -2.6 to 0.8 m<br>k_crit (headlight): -1.85 to 4.57]]></description><styleUrl>#vis</styleUrl><LineString><tessellate>1</tessellate><altitudeMode>clampToGround</altitudeMode><coordinates>-104.165845,30.092893,0 -104.165367,30.093239,0 -104.164889,30.093586,0 -104.164411,30.093933,0 -104.163933,30.094280,0 -104.163456,30.094627,0 -104.162978,30.094973,0 -104.162500,30.095320,0</coordinates></LineString></Placemark><Placemark><name>Visible — robust to DEM, eye-height and grass uncertainty</name><description><![CDATA[Chainage 36.84–37.20 km from Shafter end<br>Azimuth 233.62–233.65°, distance 33.1–32.7 km<br>Road elevation 1453–1454 m<br>Clearance at k=0.13: 0.1 to 0.7 m<br>k_crit (headlight): -0.84 to -0.28]]></description><styleUrl>#vis</styleUrl><LineString><tessellate>1</tessellate><altitudeMode>clampToGround</altitudeMode><coordinates>-104.159161,30.097755,0 -104.158684,30.098102,0 -104.158207,30.098450,0 -104.157731,30.098798,0 -104.157254,30.099146,0 -104.156777,30.099494,0 -104.156300,30.099842,0</coordinates></LineString></Placemark><Placemark><name>Visible — robust to DEM, eye-height and grass uncertainty</name><description><![CDATA[Chainage 37.98–40.02 km from Shafter end<br>Azimuth 233.74–234.46°, distance 32.0–30.0 km<br>Road elevation 1421–1448 m<br>Clearance at k=0.13: 0.1 to 0.8 m<br>k_crit (headlight): -1.69 to -0.83]]></description><styleUrl>#vis</styleUrl><LineString><tessellate>1</tessellate><altitudeMode>clampToGround</altitudeMode><coordinates>-104.150097,30.104361,0 -104.149620,30.104708,0 -104.149142,30.105056,0 -104.148665,30.105403,0 -104.148187,30.105750,0 -104.147710,30.106097,0 -104.147232,30.106444,0 -104.146755,30.106792,0 -104.146277,30.107139,0 -104.145799,30.107486,0 -104.145322,30.107833,0 -104.144844,30.108180,0 -104.144367,30.108528,0 -104.143892,30.108877,0 -104.143420,30.109231,0 -104.142956,30.109591,0 -104.142508,30.109967,0 -104.142077,30.110357,0 -104.141661,30.110760,0 -104.141260,30.111174,0 -104.140875,30.111599,0 -104.140507,30.112036,0 -104.140146,30.112476,0 -104.139783,30.112917,0 -104.139421,30.113357,0 -104.139058,30.113797,0 -104.138696,30.114237,0 -104.138333,30.114677,0 -104.137971,30.115117,0 -104.137608,30.115557,0 -104.137245,30.115997,0 -104.136883,30.116437,0 -104.136520,30.116877,0 -104.136158,30.117317,0 -104.135795,30.117757,0</coordinates></LineString></Placemark><Placemark><name>Visible — robust to DEM, eye-height and grass uncertainty</name><description><![CDATA[Chainage 40.08–40.26 km from Shafter end<br>Azimuth 234.50–234.61°, distance 29.9–29.7 km<br>Road elevation 1419–1421 m<br>Clearance at k=0.13: -1.1 to 0.7 m<br>k_crit (headlight): -0.92 to 37.23]]></description><styleUrl>#vis</styleUrl><LineString><tessellate>1</tessellate><altitudeMode>clampToGround</altitudeMode><coordinates>-104.135433,30.118197,0 -104.135072,30.118638,0 -104.134711,30.119079,0 -104.134349,30.119519,0</coordinates></LineString></Placemark><Placemark><name>Visible — robust to DEM, eye-height and grass uncertainty</name><description><![CDATA[Chainage 40.80–41.34 km from Shafter end<br>Azimuth 234.96–235.31°, distance 29.2–28.7 km<br>Road elevation 1410–1420 m<br>Clearance at k=0.13: -2.3 to 0.8 m<br>k_crit (headlight): -1.29 to 13.64]]></description><styleUrl>#vis</styleUrl><LineString><tessellate>1</tessellate><altitudeMode>clampToGround</altitudeMode><coordinates>-104.131098,30.123487,0 -104.130736,30.123927,0 -104.130375,30.124368,0 -104.130014,30.124809,0 -104.129652,30.125250,0 -104.129291,30.125690,0 -104.128929,30.126131,0 -104.128567,30.126571,0 -104.128206,30.127012,0 -104.127844,30.127453,0</coordinates></LineString></Placemark><Placemark><name>Visible — robust to DEM, eye-height and grass uncertainty</name><description><![CDATA[Chainage 43.20–43.50 km from Shafter end<br>Azimuth 236.63–236.78°, distance 27.0–26.7 km<br>Road elevation 1382–1392 m<br>Clearance at k=0.13: 0.1 to 0.8 m<br>k_crit (headlight): -0.69 to -0.48]]></description><styleUrl>#vis</styleUrl><LineString><tessellate>1</tessellate><altitudeMode>clampToGround</altitudeMode><coordinates>-104.116575,30.141074,0 -104.116166,30.141482,0 -104.115745,30.141881,0 -104.115321,30.142276,0 -104.114893,30.142670,0 -104.114467,30.143064,0</coordinates></LineString></Placemark><Placemark><name>Visible — robust to DEM, eye-height and grass uncertainty</name><description><![CDATA[Chainage 43.56–44.34 km from Shafter end<br>Azimuth 236.81–237.22°, distance 26.6–25.9 km<br>Road elevation 1379–1381 m<br>Clearance at k=0.13: -0.9 to 0.7 m<br>k_crit (headlight): -0.45 to 2.89]]></description><styleUrl>#vis</styleUrl><LineString><tessellate>1</tessellate><altitudeMode>clampToGround</altitudeMode><coordinates>-104.114043,30.143461,0 -104.113618,30.143857,0 -104.113192,30.144252,0 -104.112767,30.144647,0 -104.112342,30.145042,0 -104.111916,30.145438,0 -104.111491,30.145833,0 -104.111065,30.146228,0 -104.110640,30.146624,0 -104.110214,30.147019,0 -104.109789,30.147414,0 -104.109364,30.147809,0 -104.108938,30.148205,0 -104.108513,30.148600,0</coordinates></LineString></Placemark><Placemark><name>Visible — robust to DEM, eye-height and grass uncertainty</name><description><![CDATA[Chainage 44.40–44.46 km from Shafter end<br>Azimuth 237.25–237.29°, distance 25.8–25.7 km<br>Road elevation 1373–1379 m<br>Clearance at k=0.13: -5.9 to 0.7 m<br>k_crit (headlight): -0.37 to 250.77]]></description><styleUrl>#vis</styleUrl><LineString><tessellate>1</tessellate><altitudeMode>clampToGround</altitudeMode><coordinates>-104.108087,30.148995,0 -104.107662,30.149391,0</coordinates></LineString></Placemark><Placemark><name>Visible — robust to DEM, eye-height and grass uncertainty</name><description><![CDATA[Chainage 44.70–45.42 km from Shafter end<br>Azimuth 237.42–237.83°, distance 25.5–24.8 km<br>Road elevation 1370–1381 m<br>Clearance at k=0.13: -1.8 to 0.8 m<br>k_crit (headlight): -0.37 to 14.89]]></description><styleUrl>#vis</styleUrl><LineString><tessellate>1</tessellate><altitudeMode>clampToGround</altitudeMode><coordinates>-104.105963,30.150974,0 -104.105538,30.151370,0 -104.105113,30.151765,0 -104.104688,30.152161,0 -104.104263,30.152557,0 -104.103838,30.152952,0 -104.103413,30.153348,0 -104.102989,30.153744,0 -104.102564,30.154140,0 -104.102139,30.154535,0 -104.101714,30.154931,0 -104.101289,30.155327,0 -104.100864,30.155722,0</coordinates></LineString></Placemark><Placemark><name>Visible — robust to DEM, eye-height and grass uncertainty</name><description><![CDATA[Chainage 45.78–46.32 km from Shafter end<br>Azimuth 238.04–238.37°, distance 24.5–23.9 km<br>Road elevation 1370–1379 m<br>Clearance at k=0.13: -1.4 to 0.8 m<br>k_crit (headlight): -0.33 to 13.59]]></description><styleUrl>#vis</styleUrl><LineString><tessellate>1</tessellate><altitudeMode>clampToGround</altitudeMode><coordinates>-104.098314,30.158097,0 -104.097889,30.158492,0 -104.097464,30.158888,0 -104.097039,30.159284,0 -104.096614,30.159679,0 -104.096189,30.160075,0 -104.095765,30.160471,0 -104.095340,30.160867,0 -104.094915,30.161262,0 -104.094490,30.161658,0</coordinates></LineString></Placemark><Placemark><name>Visible — robust to DEM, eye-height and grass uncertainty</name><description><![CDATA[Chainage 54.00–54.06 km from Shafter end<br>Azimuth 251.73–251.88°, distance 18.1–18.1 km<br>Road elevation 1397–1398 m<br>Clearance at k=0.13: -0.7 to 0.4 m<br>k_crit (headlight): -0.04 to 5.74]]></description><styleUrl>#vis</styleUrl><LineString><tessellate>1</tessellate><altitudeMode>clampToGround</altitudeMode><coordinates>-104.061517,30.223747,0 -104.061305,30.224256,0</coordinates></LineString></Placemark></Folder><Folder><name>Marginal — visibility depends on sub-metre details</name><Placemark><name>Marginal — visibility depends on sub-metre details</name><description><![CDATA[Chainage 31.50–31.62 km from Shafter end<br>Azimuth 229.98–230.08°, distance 37.5–37.4 km<br>Road elevation 1575–1578 m<br>Clearance at k=0.13: 0.1 to 0.5 m<br>k_crit (headlight): -1.17 to -0.02]]></description><styleUrl>#marg</styleUrl><LineString><tessellate>1</tessellate><altitudeMode>clampToGround</altitudeMode><coordinates>-104.180779,30.057130,0 -104.180601,30.057649,0 -104.180423,30.058168,0</coordinates></LineString></Placemark><Placemark><name>Marginal — visibility depends on sub-metre details</name><description><![CDATA[Chainage 35.22–35.28 km from Shafter end<br>Azimuth 233.04–233.09°, distance 34.6–34.6 km<br>Road elevation 1485–1487 m<br>Clearance at k=0.13: 0.0 to 0.8 m<br>k_crit (headlight): -1.36 to 0.09]]></description><styleUrl>#marg</styleUrl><LineString><tessellate>1</tessellate><altitudeMode>clampToGround</altitudeMode><coordinates>-104.169941,30.086901,0 -104.169681,30.087393,0</coordinates></LineString></Placemark><Placemark><name>Marginal — visibility depends on sub-metre details</name><description><![CDATA[Chainage 36.78–36.84 km from Shafter end<br>Azimuth 233.61–233.62°, distance 33.1–33.1 km<br>Road elevation 1453–1454 m<br>Clearance at k=0.13: -2.6 to 0.1 m<br>k_crit (headlight): -0.31 to 3.68]]></description><styleUrl>#marg</styleUrl><LineString><tessellate>1</tessellate><altitudeMode>clampToGround</altitudeMode><coordinates>-104.159638,30.097407,0 -104.159161,30.097755,0</coordinates></LineString></Placemark><Placemark><name>Marginal — visibility depends on sub-metre details</name><description><![CDATA[Chainage 37.20–37.26 km from Shafter end<br>Azimuth 233.65–233.66°, distance 32.7–32.7 km<br>Road elevation 1452–1453 m<br>Clearance at k=0.13: 0.0 to 0.7 m<br>k_crit (headlight): -0.28 to 0.04]]></description><styleUrl>#marg</styleUrl><LineString><tessellate>1</tessellate><altitudeMode>clampToGround</altitudeMode><coordinates>-104.156300,30.099842,0 -104.155823,30.100190,0</coordinates></LineString></Placemark><Placemark><name>Marginal — visibility depends on sub-metre details</name><description><![CDATA[Chainage 37.92–37.98 km from Shafter end<br>Azimuth 233.73–233.74°, distance 32.0–32.0 km<br>Road elevation 1447–1448 m<br>Clearance at k=0.13: -1.1 to 0.1 m<br>k_crit (headlight): -0.83 to 4.80]]></description><styleUrl>#marg</styleUrl><LineString><tessellate>1</tessellate><altitudeMode>clampToGround</altitudeMode><coordinates>-104.150575,30.104014,0 -104.150097,30.104361,0</coordinates></LineString></Placemark><Placemark><name>Marginal — visibility depends on sub-metre details</name><description><![CDATA[Chainage 43.14–43.20 km from Shafter end<br>Azimuth 236.59–236.63°, distance 27.0–27.0 km<br>Road elevation 1392–1392 m<br>Clearance at k=0.13: -1.5 to 0.1 m<br>k_crit (headlight): -0.66 to 9.83]]></description><styleUrl>#marg</styleUrl><LineString><tessellate>1</tessellate><altitudeMode>clampToGround</altitudeMode><coordinates>-104.116963,30.140650,0 -104.116575,30.141074,0</coordinates></LineString></Placemark><Placemark><name>Marginal — visibility depends on sub-metre details</name><description><![CDATA[Chainage 46.32–46.38 km from Shafter end<br>Azimuth 238.37–238.41°, distance 23.9–23.9 km<br>Road elevation 1368–1370 m<br>Clearance at k=0.13: 0.6 to 0.8 m<br>k_crit (headlight): 0.04 to 0.11]]></description><styleUrl>#marg</styleUrl><LineString><tessellate>1</tessellate><altitudeMode>clampToGround</altitudeMode><coordinates>-104.094490,30.161658,0 -104.094065,30.162054,0</coordinates></LineString></Placemark></Folder><Folder><name>Hidden by terrain</name><Placemark><name>Hidden by terrain</name><description><![CDATA[Chainage 0.00–28.92 km from Shafter end<br>Azimuth 218.99–228.92°, distance 65.1–39.9 km<br>Road elevation 1166–1649 m<br>Clearance at k=0.13: -532.5 to -0.3 m<br>k_crit (headlight): 1.16 to 97.46]]></description><styleUrl>#hid</styleUrl><LineString><tessellate>1</tessellate><altitudeMode>clampToGround</altitudeMode><coordinates>-104.306776,29.817685,0 -104.306479,29.818160,0 -104.306284,29.818673,0 -104.306126,29.819196,0 -104.305967,29.819719,0 -104.305818,29.820245,0 -104.305763,29.820783,0 -104.305822,29.821321,0 -104.305982,29.821843,0 -104.306227,29.822339,0 -104.306572,29.822788,0 -104.306998,29.823181,0 -104.307467,29.823535,0 -104.307926,29.823900,0 -104.308383,29.824266,0 -104.308822,29.824648,0 -104.309236,29.825052,0 -104.309597,29.825491,0 -104.309907,29.825960,0 -104.310156,29.826456,0 -104.310342,29.826971,0 -104.310475,29.827500,0 -104.310597,29.828031,0 -104.310710,29.828563,0 -104.310841,29.829091,0 -104.311014,29.829611,0 -104.311179,29.830133,0 -104.311295,29.830664,0 -104.311342,29.831204,0 -104.311358,29.831745,0 -104.311274,29.832280,0 -104.311084,29.832793,0 -104.310798,29.833273,0 -104.310440,29.833715,0 -104.310061,29.834143,0 -104.309684,29.834574,0 -104.309291,29.834993,0 -104.308899,29.835412,0 -104.308515,29.835837,0 -104.308140,29.836268,0 -104.307757,29.836694,0 -104.307404,29.837139,0 -104.307118,29.837620,0 -104.306917,29.838131,0 -104.306723,29.838646,0 -104.306469,29.839138,0 -104.306122,29.839586,0 -104.305719,29.839997,0 -104.305244,29.840345,0 -104.304750,29.840673,0 -104.304282,29.841028,0 -104.303874,29.841435,0 -104.303545,29.841893,0 -104.303295,29.842388,0 -104.303101,29.842902,0 -104.302917,29.843418,0 -104.302705,29.843926,0 -104.302388,29.844391,0 -104.301979,29.844797,0 -104.301490,29.845128,0 -104.300959,29.845408,0 -104.300415,29.845668,0 -104.299868,29.845924,0 -104.299314,29.846168,0 -104.298732,29.846355,0 -104.298129,29.846483,0 -104.297512,29.846537,0 -104.296891,29.846533,0 -104.296270,29.846527,0 -104.295649,29.846522,0 -104.295029,29.846518,0 -104.294410,29.846561,0 -104.293801,29.846668,0 -104.293202,29.846810,0 -104.292602,29.846948,0 -104.292001,29.847086,0 -104.291407,29.847242,0 -104.290860,29.847496,0 -104.290359,29.847813,0 -104.289930,29.848203,0 -104.289576,29.848647,0 -104.289323,29.849141,0 -104.289168,29.849664,0 -104.289113,29.850203,0 -104.289151,29.850742,0 -104.289308,29.851265,0 -104.289530,29.851771,0 -104.289755,29.852275,0 -104.289982,29.852779,0 -104.290208,29.853283,0 -104.290435,29.853787,0 -104.290662,29.854291,0 -104.290889,29.854795,0 -104.291116,29.855299,0 -104.291341,29.855803,0 -104.291564,29.856308,0 -104.291787,29.856813,0 -104.292002,29.857320,0 -104.292128,29.857850,0 -104.292177,29.858389,0 -104.292148,29.858929,0 -104.292080,29.859467,0 -104.292012,29.860005,0 -104.291944,29.860543,0 -104.291877,29.861081,0 -104.291809,29.861619,0 -104.291741,29.862158,0 -104.291673,29.862696,0 -104.291606,29.863234,0 -104.291538,29.863772,0 -104.291467,29.864309,0 -104.291313,29.864833,0 -104.291048,29.865321,0 -104.290699,29.865768,0 -104.290330,29.866203,0 -104.289963,29.866640,0 -104.289576,29.867063,0 -104.289189,29.867487,0 -104.288802,29.867910,0 -104.288424,29.868339,0 -104.288071,29.868785,0 -104.287743,29.869244,0 -104.287458,29.869725,0 -104.287189,29.870212,0 -104.286921,29.870701,0 -104.286653,29.871189,0 -104.286385,29.871677,0 -104.286116,29.872165,0 -104.285848,29.872653,0 -104.285580,29.873141,0 -104.285304,29.873626,0 -104.284978,29.874087,0 -104.284599,29.874515,0 -104.284168,29.874902,0 -104.283692,29.875250,0 -104.283182,29.875557,0 -104.282647,29.875831,0 -104.282102,29.876092,0 -104.281558,29.876353,0 -104.281014,29.876613,0 -104.280470,29.876874,0 -104.279925,29.877135,0 -104.279380,29.877395,0 -104.278843,29.877665,0 -104.278356,29.878000,0 -104.277927,29.878391,0 -104.277594,29.878846,0 -104.277359,29.879346,0 -104.277157,29.879858,0 -104.276957,29.880370,0 -104.276755,29.880882,0 -104.276560,29.881396,0 -104.276382,29.881915,0 -104.276219,29.882437,0 -104.276081,29.882964,0 -104.275963,29.883496,0 -104.275853,29.884029,0 -104.275742,29.884561,0 -104.275631,29.885094,0 -104.275520,29.885626,0 -104.275410,29.886159,0 -104.275299,29.886692,0 -104.275188,29.887224,0 -104.275077,29.887757,0 -104.274967,29.888289,0 -104.274856,29.888822,0 -104.274745,29.889355,0 -104.274634,29.889887,0 -104.274524,29.890420,0 -104.274413,29.890952,0 -104.274302,29.891485,0 -104.274191,29.892017,0 -104.274081,29.892550,0 -104.273970,29.893083,0 -104.273859,29.893615,0 -104.273748,29.894148,0 -104.273638,29.894680,0 -104.273527,29.895213,0 -104.273416,29.895746,0 -104.273305,29.896278,0 -104.273195,29.896811,0 -104.273084,29.897343,0 -104.272973,29.897876,0 -104.272862,29.898409,0 -104.272751,29.898941,0 -104.272641,29.899474,0 -104.272530,29.900006,0 -104.272419,29.900539,0 -104.272308,29.901072,0 -104.272198,29.901604,0 -104.272087,29.902137,0 -104.271976,29.902669,0 -104.271865,29.903202,0 -104.271754,29.903735,0 -104.271644,29.904267,0 -104.271533,29.904800,0 -104.271422,29.905332,0 -104.271311,29.905865,0 -104.271201,29.906398,0 -104.271090,29.906930,0 -104.270979,29.907463,0 -104.270868,29.907995,0 -104.270757,29.908528,0 -104.270647,29.909060,0 -104.270536,29.909593,0 -104.270425,29.910126,0 -104.270314,29.910658,0 -104.270203,29.911191,0 -104.270093,29.911723,0 -104.269982,29.912256,0 -104.269871,29.912789,0 -104.269760,29.913321,0 -104.269651,29.913854,0 -104.269543,29.914387,0 -104.269415,29.914917,0 -104.269269,29.915443,0 -104.269118,29.915968,0 -104.268957,29.916491,0 -104.268783,29.917010,0 -104.268610,29.917530,0 -104.268413,29.918043,0 -104.268215,29.918556,0 -104.268018,29.919070,0 -104.267820,29.919583,0 -104.267623,29.920096,0 -104.267425,29.920609,0 -104.267227,29.921122,0 -104.267030,29.921636,0 -104.266832,29.922149,0 -104.266635,29.922662,0 -104.266437,29.923175,0 -104.266240,29.923688,0 -104.266042,29.924201,0 -104.265845,29.924715,0 -104.265646,29.925227,0 -104.265446,29.925740,0 -104.265247,29.926253,0 -104.265048,29.926765,0 -104.264848,29.927278,0 -104.264649,29.927791,0 -104.264450,29.928303,0 -104.264250,29.928816,0 -104.264041,29.929325,0 -104.263810,29.929828,0 -104.263558,29.930323,0 -104.263279,29.930806,0 -104.262988,29.931284,0 -104.262688,29.931758,0 -104.262363,29.932220,0 -104.262013,29.932666,0 -104.261645,29.933103,0 -104.261277,29.933539,0 -104.260904,29.933972,0 -104.260529,29.934403,0 -104.260154,29.934835,0 -104.259779,29.935266,0 -104.259403,29.935698,0 -104.259029,29.936130,0 -104.258655,29.936562,0 -104.258281,29.936994,0 -104.257907,29.937427,0 -104.257533,29.937859,0 -104.257159,29.938291,0 -104.256785,29.938723,0 -104.256411,29.939156,0 -104.256037,29.939588,0 -104.255663,29.940020,0 -104.255289,29.940453,0 -104.254913,29.940884,0 -104.254495,29.941283,0 -104.254030,29.941641,0 -104.253504,29.941929,0 -104.252951,29.942176,0 -104.252397,29.942421,0 -104.251844,29.942667,0 -104.251290,29.942913,0 -104.250736,29.943159,0 -104.250182,29.943404,0 -104.249627,29.943648,0 -104.249073,29.943892,0 -104.248517,29.944135,0 -104.247962,29.944377,0 -104.247406,29.944620,0 -104.246850,29.944862,0 -104.246296,29.945106,0 -104.245719,29.945308,0 -104.245143,29.945511,0 -104.244566,29.945714,0 -104.243990,29.945917,0 -104.243414,29.946121,0 -104.242839,29.946325,0 -104.242270,29.946542,0 -104.241708,29.946774,0 -104.241154,29.947019,0 -104.240598,29.947260,0 -104.240043,29.947505,0 -104.239490,29.947750,0 -104.238936,29.947996,0 -104.238382,29.948242,0 -104.237827,29.948486,0 -104.237269,29.948724,0 -104.236712,29.948963,0 -104.236169,29.949227,0 -104.235655,29.949531,0 -104.235173,29.949872,0 -104.234742,29.950261,0 -104.234336,29.950671,0 -104.233970,29.951108,0 -104.233653,29.951573,0 -104.233387,29.952062,0 -104.233169,29.952569,0 -104.232995,29.953088,0 -104.232875,29.953619,0 -104.232800,29.954156,0 -104.232751,29.954696,0 -104.232705,29.955236,0 -104.232658,29.955775,0 -104.232611,29.956315,0 -104.232564,29.956855,0 -104.232518,29.957395,0 -104.232471,29.957934,0 -104.232424,29.958474,0 -104.232377,29.959014,0 -104.232329,29.959553,0 -104.232233,29.960088,0 -104.232102,29.960617,0 -104.231932,29.961137,0 -104.231738,29.961652,0 -104.231499,29.962151,0 -104.231237,29.962641,0 -104.230974,29.963132,0 -104.230710,29.963622,0 -104.230447,29.964113,0 -104.230184,29.964603,0 -104.229921,29.965093,0 -104.229658,29.965584,0 -104.229395,29.966074,0 -104.229134,29.966565,0 -104.228873,29.967057,0 -104.228600,29.967543,0 -104.228297,29.968015,0 -104.227952,29.968465,0 -104.227574,29.968894,0 -104.227170,29.969306,0 -104.226755,29.969709,0 -104.226344,29.970114,0 -104.225933,29.970521,0 -104.225523,29.970927,0 -104.225115,29.971335,0 -104.224755,29.971777,0 -104.224474,29.972258,0 -104.224275,29.972771,0 -104.224107,29.973292,0 -104.223942,29.973813,0 -104.223777,29.974335,0 -104.223611,29.974857,0 -104.223446,29.975379,0 -104.223280,29.975900,0 -104.223115,29.976422,0 -104.222950,29.976944,0 -104.222784,29.977466,0 -104.222631,29.977990,0 -104.222480,29.978515,0 -104.222324,29.979039,0 -104.222163,29.979562,0 -104.221998,29.980084,0 -104.221842,29.980608,0 -104.221693,29.981133,0 -104.221553,29.981661,0 -104.221429,29.982191,0 -104.221311,29.982722,0 -104.221199,29.983255,0 -104.221087,29.983787,0 -104.220976,29.984320,0 -104.220864,29.984852,0 -104.220752,29.985385,0 -104.220640,29.985917,0 -104.220528,29.986449,0 -104.220416,29.986982,0 -104.220304,29.987514,0 -104.220192,29.988047,0 -104.220080,29.988579,0 -104.219968,29.989112,0 -104.219856,29.989644,0 -104.219745,29.990176,0 -104.219633,29.990709,0 -104.219521,29.991241,0 -104.219409,29.991774,0 -104.219297,29.992306,0 -104.219185,29.992838,0 -104.219073,29.993371,0 -104.218961,29.993903,0 -104.218849,29.994436,0 -104.218737,29.994968,0 -104.218625,29.995501,0 -104.218513,29.996033,0 -104.218401,29.996565,0 -104.218289,29.997098,0 -104.218178,29.997630,0 -104.218066,29.998163,0 -104.217954,29.998695,0 -104.217841,29.999227,0 -104.217729,29.999760,0 -104.217614,30.000292,0 -104.217492,30.000822,0 -104.217371,30.001353,0 -104.217249,30.001884,0 -104.217130,30.002415,0 -104.217020,30.002948,0 -104.216885,30.003476,0 -104.216731,30.004000,0 -104.216547,30.004517,0 -104.216355,30.005032,0 -104.216142,30.005541,0 -104.215908,30.006042,0 -104.215652,30.006535,0 -104.215376,30.007020,0 -104.215087,30.007500,0 -104.214798,30.007979,0 -104.214509,30.008458,0 -104.214220,30.008938,0 -104.213932,30.009417,0 -104.213643,30.009896,0 -104.213354,30.010376,0 -104.213065,30.010855,0 -104.212776,30.011334,0 -104.212489,30.011814,0 -104.212201,30.012294,0 -104.211914,30.012774,0 -104.211627,30.013254,0 -104.211339,30.013734,0 -104.211052,30.014215,0 -104.210765,30.014695,0 -104.210478,30.015175,0 -104.210190,30.015655,0 -104.209903,30.016135,0 -104.209616,30.016615,0 -104.209328,30.017095,0 -104.209041,30.017575,0 -104.208754,30.018055,0 -104.208466,30.018535,0 -104.208179,30.019015,0 -104.207892,30.019495,0 -104.207604,30.019975,0 -104.207317,30.020455,0 -104.207030,30.020935,0 -104.206742,30.021415,0 -104.206455,30.021895,0 -104.206168,30.022375,0 -104.205880,30.022855,0 -104.205593,30.023335,0 -104.205306,30.023815,0 -104.205018,30.024295,0 -104.204731,30.024775,0 -104.204444,30.025256,0 -104.204156,30.025736,0 -104.203869,30.026216,0 -104.203582,30.026696,0 -104.203294,30.027176,0 -104.203007,30.027656,0 -104.202720,30.028136,0 -104.202432,30.028616,0 -104.202145,30.029096,0 -104.201857,30.029576,0 -104.201569,30.030056,0 -104.201261,30.030525,0 -104.200941,30.030990,0 -104.200595,30.031439,0 -104.200235,30.031880,0 -104.199867,30.032317,0 -104.199493,30.032749,0 -104.199118,30.033181,0 -104.198743,30.033613,0 -104.198369,30.034045,0 -104.197994,30.034477,0 -104.197619,30.034910,0 -104.197245,30.035342,0 -104.196870,30.035774,0 -104.196495,30.036206,0 -104.196121,30.036638,0 -104.195746,30.037070,0 -104.195371,30.037502,0 -104.194995,30.037933,0</coordinates></LineString></Placemark><Placemark><name>Hidden by terrain</name><description><![CDATA[Chainage 29.58–29.94 km from Shafter end<br>Azimuth 228.95–229.08°, distance 39.3–38.9 km<br>Road elevation 1618–1635 m<br>Clearance at k=0.13: -3.0 to 0.8 m<br>k_crit (headlight): -2.17 to 14.01]]></description><styleUrl>#hid</styleUrl><LineString><tessellate>1</tessellate><altitudeMode>clampToGround</altitudeMode><coordinates>-104.190024,30.041983,0 -104.189673,30.042430,0 -104.189325,30.042879,0 -104.188978,30.043328,0 -104.188631,30.043777,0 -104.188284,30.044226,0 -104.187937,30.044676,0</coordinates></LineString></Placemark><Placemark><name>Hidden by terrain</name><description><![CDATA[Chainage 30.66–31.02 km from Shafter end<br>Azimuth 229.36–229.58°, distance 38.2–37.9 km<br>Road elevation 1576–1591 m<br>Clearance at k=0.13: -4.8 to 0.8 m<br>k_crit (headlight): -2.00 to 37.07]]></description><styleUrl>#hid</styleUrl><LineString><tessellate>1</tessellate><altitudeMode>clampToGround</altitudeMode><coordinates>-104.183772,30.050066,0 -104.183423,30.050514,0 -104.183082,30.050967,0 -104.182782,30.051439,0 -104.182561,30.051944,0 -104.182379,30.052462,0 -104.182200,30.052981,0</coordinates></LineString></Placemark><Placemark><name>Hidden by terrain</name><description><![CDATA[Chainage 31.20–31.44 km from Shafter end<br>Azimuth 229.73–229.93°, distance 37.8–37.6 km<br>Road elevation 1570–1574 m<br>Clearance at k=0.13: -1.7 to 0.7 m<br>k_crit (headlight): -0.70 to 13.22]]></description><styleUrl>#hid</styleUrl><LineString><tessellate>1</tessellate><altitudeMode>clampToGround</altitudeMode><coordinates>-104.181667,30.054537,0 -104.181490,30.055055,0 -104.181312,30.055574,0 -104.181134,30.056093,0 -104.180956,30.056611,0</coordinates></LineString></Placemark><Placemark><name>Hidden by terrain</name><description><![CDATA[Chainage 32.64–32.76 km from Shafter end<br>Azimuth 230.58–230.61°, distance 36.5–36.4 km<br>Road elevation 1557–1557 m<br>Clearance at k=0.13: -1.5 to 0.3 m<br>k_crit (headlight): -1.17 to 6.05]]></description><styleUrl>#hid</styleUrl><LineString><tessellate>1</tessellate><altitudeMode>clampToGround</altitudeMode><coordinates>-104.174967,30.065885,0 -104.174564,30.066297,0 -104.174157,30.066706,0</coordinates></LineString></Placemark><Placemark><name>Hidden by terrain</name><description><![CDATA[Chainage 33.36–35.10 km from Shafter end<br>Azimuth 230.79–232.94°, distance 35.8–34.7 km<br>Road elevation 1491–1544 m<br>Clearance at k=0.13: -31.9 to 0.5 m<br>k_crit (headlight): -1.12 to 173.54]]></description><styleUrl>#hid</styleUrl><LineString><tessellate>1</tessellate><altitudeMode>clampToGround</altitudeMode><coordinates>-104.170165,30.070859,0 -104.169773,30.071279,0 -104.169381,30.071699,0 -104.169016,30.072137,0 -104.168720,30.072612,0 -104.168490,30.073114,0 -104.168366,30.073644,0 -104.168327,30.074184,0 -104.168376,30.074723,0 -104.168477,30.075257,0 -104.168591,30.075789,0 -104.168709,30.076321,0 -104.168827,30.076852,0 -104.168945,30.077383,0 -104.169063,30.077915,0 -104.169180,30.078446,0 -104.169298,30.078978,0 -104.169416,30.079509,0 -104.169534,30.080041,0 -104.169652,30.080572,0 -104.169770,30.081104,0 -104.169888,30.081635,0 -104.170006,30.082167,0 -104.170124,30.082698,0 -104.170241,30.083229,0 -104.170362,30.083760,0 -104.170481,30.084292,0 -104.170549,30.084829,0 -104.170535,30.085369,0 -104.170403,30.085897,0</coordinates></LineString></Placemark><Placemark><name>Hidden by terrain</name><description><![CDATA[Chainage 35.34–35.64 km from Shafter end<br>Azimuth 233.13–233.37°, distance 34.5–34.3 km<br>Road elevation 1475–1483 m<br>Clearance at k=0.13: -3.4 to 0.7 m<br>k_crit (headlight): -0.57 to 29.98]]></description><styleUrl>#hid</styleUrl><LineString><tessellate>1</tessellate><altitudeMode>clampToGround</altitudeMode><coordinates>-104.169421,30.087884,0 -104.169161,30.088376,0 -104.168889,30.088863,0 -104.168616,30.089349,0 -104.168344,30.089836,0 -104.168080,30.090326,0</coordinates></LineString></Placemark><Placemark><name>Hidden by terrain</name><description><![CDATA[Chainage 35.76–36.00 km from Shafter end<br>Azimuth 233.45–233.53°, distance 34.2–33.9 km<br>Road elevation 1468–1471 m<br>Clearance at k=0.13: -5.1 to 0.8 m<br>k_crit (headlight): -1.39 to 14.34]]></description><styleUrl>#hid</styleUrl><LineString><tessellate>1</tessellate><altitudeMode>clampToGround</altitudeMode><coordinates>-104.167482,30.091273,0 -104.167110,30.091707,0 -104.166734,30.092138,0 -104.166310,30.092534,0 -104.165845,30.092893,0</coordinates></LineString></Placemark><Placemark><name>Hidden by terrain</name><description><![CDATA[Chainage 36.42–36.78 km from Shafter end<br>Azimuth 233.57–233.61°, distance 33.5–33.1 km<br>Road elevation 1453–1458 m<br>Clearance at k=0.13: -2.7 to 0.7 m<br>k_crit (headlight): -1.05 to 3.86]]></description><styleUrl>#hid</styleUrl><LineString><tessellate>1</tessellate><altitudeMode>clampToGround</altitudeMode><coordinates>-104.162500,30.095320,0 -104.162022,30.095667,0 -104.161544,30.096014,0 -104.161066,30.096361,0 -104.160589,30.096708,0 -104.160113,30.097057,0 -104.159638,30.097407,0</coordinates></LineString></Placemark><Placemark><name>Hidden by terrain</name><description><![CDATA[Chainage 37.26–37.92 km from Shafter end<br>Azimuth 233.66–233.73°, distance 32.7–32.0 km<br>Road elevation 1441–1452 m<br>Clearance at k=0.13: -10.2 to 0.0 m<br>k_crit (headlight): 0.04 to 107.37]]></description><styleUrl>#hid</styleUrl><LineString><tessellate>1</tessellate><altitudeMode>clampToGround</altitudeMode><coordinates>-104.155823,30.100190,0 -104.155346,30.100538,0 -104.154869,30.100886,0 -104.154393,30.101234,0 -104.153916,30.101581,0 -104.153439,30.101929,0 -104.152962,30.102277,0 -104.152485,30.102625,0 -104.152007,30.102972,0 -104.151530,30.103319,0 -104.151052,30.103667,0 -104.150575,30.104014,0</coordinates></LineString></Placemark><Placemark><name>Hidden by terrain</name><description><![CDATA[Chainage 40.02–40.08 km from Shafter end<br>Azimuth 234.46–234.50°, distance 30.0–29.9 km<br>Road elevation 1421–1421 m<br>Clearance at k=0.13: -1.1 to 0.7 m<br>k_crit (headlight): -1.09 to 37.23]]></description><styleUrl>#hid</styleUrl><LineString><tessellate>1</tessellate><altitudeMode>clampToGround</altitudeMode><coordinates>-104.135795,30.117757,0 -104.135433,30.118197,0</coordinates></LineString></Placemark><Placemark><name>Hidden by terrain</name><description><![CDATA[Chainage 40.26–40.80 km from Shafter end<br>Azimuth 234.61–234.96°, distance 29.7–29.2 km<br>Road elevation 1417–1420 m<br>Clearance at k=0.13: -3.7 to 0.7 m<br>k_crit (headlight): -0.40 to 13.64]]></description><styleUrl>#hid</styleUrl><LineString><tessellate>1</tessellate><altitudeMode>clampToGround</altitudeMode><coordinates>-104.134349,30.119519,0 -104.133988,30.119960,0 -104.133627,30.120401,0 -104.133266,30.120842,0 -104.132904,30.121283,0 -104.132543,30.121723,0 -104.132182,30.122164,0 -104.131820,30.122605,0 -104.131459,30.123046,0 -104.131098,30.123487,0</coordinates></LineString></Placemark><Placemark><name>Hidden by terrain</name><description><![CDATA[Chainage 41.34–43.14 km from Shafter end<br>Azimuth 235.31–236.59°, distance 28.7–27.0 km<br>Road elevation 1388–1410 m<br>Clearance at k=0.13: -18.7 to 0.8 m<br>k_crit (headlight): -0.96 to 25.56]]></description><styleUrl>#hid</styleUrl><LineString><tessellate>1</tessellate><altitudeMode>clampToGround</altitudeMode><coordinates>-104.127844,30.127453,0 -104.127482,30.127893,0 -104.127121,30.128334,0 -104.126759,30.128774,0 -104.126397,30.129215,0 -104.126036,30.129655,0 -104.125674,30.130096,0 -104.125312,30.130537,0 -104.124951,30.130977,0 -104.124589,30.131418,0 -104.124227,30.131858,0 -104.123865,30.132299,0 -104.123504,30.132739,0 -104.123142,30.133180,0 -104.122780,30.133621,0 -104.122418,30.134061,0 -104.122057,30.134502,0 -104.121695,30.134942,0 -104.121333,30.135383,0 -104.120972,30.135823,0 -104.120610,30.136264,0 -104.120248,30.136704,0 -104.119886,30.137145,0 -104.119525,30.137586,0 -104.119163,30.138026,0 -104.118797,30.138464,0 -104.118431,30.138902,0 -104.118075,30.139346,0 -104.117711,30.139785,0 -104.117345,30.140223,0 -104.116963,30.140650,0</coordinates></LineString></Placemark><Placemark><name>Hidden by terrain</name><description><![CDATA[Chainage 43.50–43.56 km from Shafter end<br>Azimuth 236.78–236.81°, distance 26.7–26.6 km<br>Road elevation 1381–1382 m<br>Clearance at k=0.13: -0.9 to 0.5 m<br>k_crit (headlight): -0.48 to 2.89]]></description><styleUrl>#hid</styleUrl><LineString><tessellate>1</tessellate><altitudeMode>clampToGround</altitudeMode><coordinates>-104.114467,30.143064,0 -104.114043,30.143461,0</coordinates></LineString></Placemark><Placemark><name>Hidden by terrain</name><description><![CDATA[Chainage 44.34–44.40 km from Shafter end<br>Azimuth 237.22–237.25°, distance 25.9–25.8 km<br>Road elevation 1373–1379 m<br>Clearance at k=0.13: -5.9 to 0.7 m<br>k_crit (headlight): -0.38 to 250.77]]></description><styleUrl>#hid</styleUrl><LineString><tessellate>1</tessellate><altitudeMode>clampToGround</altitudeMode><coordinates>-104.108513,30.148600,0 -104.108087,30.148995,0</coordinates></LineString></Placemark><Placemark><name>Hidden by terrain</name><description><![CDATA[Chainage 44.46–44.70 km from Shafter end<br>Azimuth 237.29–237.42°, distance 25.7–25.5 km<br>Road elevation 1379–1381 m<br>Clearance at k=0.13: -4.2 to 0.7 m<br>k_crit (headlight): -0.37 to 18.60]]></description><styleUrl>#hid</styleUrl><LineString><tessellate>1</tessellate><altitudeMode>clampToGround</altitudeMode><coordinates>-104.107662,30.149391,0 -104.107238,30.149787,0 -104.106813,30.150182,0 -104.106388,30.150578,0 -104.105963,30.150974,0</coordinates></LineString></Placemark><Placemark><name>Hidden by terrain</name><description><![CDATA[Chainage 45.42–45.78 km from Shafter end<br>Azimuth 237.83–238.04°, distance 24.8–24.5 km<br>Road elevation 1370–1376 m<br>Clearance at k=0.13: -4.0 to 0.7 m<br>k_crit (headlight): 0.06 to 26.51]]></description><styleUrl>#hid</styleUrl><LineString><tessellate>1</tessellate><altitudeMode>clampToGround</altitudeMode><coordinates>-104.100864,30.155722,0 -104.100439,30.156118,0 -104.100014,30.156514,0 -104.099589,30.156910,0 -104.099164,30.157305,0 -104.098739,30.157701,0 -104.098314,30.158097,0</coordinates></LineString></Placemark><Placemark><name>Hidden by terrain</name><description><![CDATA[Chainage 46.38–54.00 km from Shafter end<br>Azimuth 238.41–251.73°, distance 23.9–18.1 km<br>Road elevation 1352–1398 m<br>Clearance at k=0.13: -47.6 to 0.6 m<br>k_crit (headlight): 0.11 to 34.17]]></description><styleUrl>#hid</styleUrl><LineString><tessellate>1</tessellate><altitudeMode>clampToGround</altitudeMode><coordinates>-104.094065,30.162054,0 -104.093640,30.162449,0 -104.093215,30.162845,0 -104.092790,30.163241,0 -104.092365,30.163636,0 -104.091940,30.164032,0 -104.091515,30.164428,0 -104.091090,30.164823,0 -104.090665,30.165219,0 -104.090240,30.165615,0 -104.089815,30.166010,0 -104.089390,30.166406,0 -104.088965,30.166802,0 -104.088539,30.167197,0 -104.088114,30.167593,0 -104.087689,30.167989,0 -104.087264,30.168384,0 -104.086839,30.168780,0 -104.086414,30.169176,0 -104.085989,30.169571,0 -104.085564,30.169967,0 -104.085140,30.170363,0 -104.084718,30.170762,0 -104.084312,30.171172,0 -104.083917,30.171590,0 -104.083544,30.172024,0 -104.083188,30.172468,0 -104.082847,30.172920,0 -104.082524,30.173383,0 -104.082224,30.173858,0 -104.081938,30.174338,0 -104.081673,30.174828,0 -104.081431,30.175327,0 -104.081207,30.175832,0 -104.080994,30.176340,0 -104.080786,30.176850,0 -104.080578,30.177360,0 -104.080369,30.177871,0 -104.080161,30.178381,0 -104.079952,30.178891,0 -104.079744,30.179401,0 -104.079535,30.179911,0 -104.079327,30.180421,0 -104.079118,30.180931,0 -104.078910,30.181441,0 -104.078701,30.181951,0 -104.078492,30.182461,0 -104.078284,30.182971,0 -104.078075,30.183481,0 -104.077867,30.183991,0 -104.077658,30.184501,0 -104.077450,30.185011,0 -104.077241,30.185521,0 -104.077033,30.186031,0 -104.076824,30.186541,0 -104.076616,30.187051,0 -104.076407,30.187561,0 -104.076199,30.188071,0 -104.075990,30.188581,0 -104.075782,30.189091,0 -104.075573,30.189601,0 -104.075365,30.190111,0 -104.075156,30.190621,0 -104.074947,30.191131,0 -104.074739,30.191641,0 -104.074530,30.192151,0 -104.074322,30.192661,0 -104.074113,30.193171,0 -104.073905,30.193681,0 -104.073696,30.194191,0 -104.073488,30.194701,0 -104.073279,30.195211,0 -104.073070,30.195721,0 -104.072862,30.196231,0 -104.072653,30.196741,0 -104.072445,30.197252,0 -104.072236,30.197762,0 -104.072028,30.198272,0 -104.071819,30.198782,0 -104.071610,30.199292,0 -104.071402,30.199802,0 -104.071193,30.200312,0 -104.070985,30.200822,0 -104.070776,30.201332,0 -104.070568,30.201842,0 -104.070359,30.202352,0 -104.070150,30.202862,0 -104.069942,30.203372,0 -104.069733,30.203882,0 -104.069525,30.204392,0 -104.069316,30.204902,0 -104.069107,30.205412,0 -104.068899,30.205922,0 -104.068690,30.206432,0 -104.068482,30.206942,0 -104.068273,30.207452,0 -104.068064,30.207962,0 -104.067856,30.208472,0 -104.067647,30.208982,0 -104.067438,30.209492,0 -104.067230,30.210002,0 -104.067021,30.210512,0 -104.066813,30.211022,0 -104.066603,30.211532,0 -104.066392,30.212041,0 -104.066180,30.212550,0 -104.065968,30.213059,0 -104.065756,30.213568,0 -104.065544,30.214077,0 -104.065332,30.214586,0 -104.065120,30.215095,0 -104.064908,30.215604,0 -104.064696,30.216113,0 -104.064484,30.216622,0 -104.064272,30.217131,0 -104.064060,30.217640,0 -104.063848,30.218149,0 -104.063636,30.218658,0 -104.063424,30.219167,0 -104.063213,30.219676,0 -104.063001,30.220184,0 -104.062789,30.220693,0 -104.062577,30.221202,0 -104.062365,30.221711,0 -104.062153,30.222220,0 -104.061941,30.222729,0 -104.061729,30.223238,0 -104.061517,30.223747,0</coordinates></LineString></Placemark><Placemark><name>Hidden by terrain</name><description><![CDATA[Chainage 54.06–64.44 km from Shafter end<br>Azimuth 251.88–285.98°, distance 18.1–13.8 km<br>Road elevation 1392–1429 m<br>Clearance at k=0.13: -46.5 to 0.4 m<br>k_crit (headlight): -0.04 to 65.31]]></description><styleUrl>#hid</styleUrl><LineString><tessellate>1</tessellate><altitudeMode>clampToGround</altitudeMode><coordinates>-104.061305,30.224256,0 -104.061093,30.224765,0 -104.060881,30.225274,0 -104.060669,30.225783,0 -104.060457,30.226292,0 -104.060245,30.226801,0 -104.060033,30.227310,0 -104.059821,30.227819,0 -104.059609,30.228328,0 -104.059397,30.228837,0 -104.059185,30.229346,0 -104.058973,30.229855,0 -104.058757,30.230363,0 -104.058540,30.230870,0 -104.058322,30.231377,0 -104.058104,30.231884,0 -104.057886,30.232391,0 -104.057669,30.232899,0 -104.057451,30.233406,0 -104.057233,30.233913,0 -104.057015,30.234420,0 -104.056798,30.234927,0 -104.056580,30.235434,0 -104.056362,30.235941,0 -104.056144,30.236448,0 -104.055926,30.236956,0 -104.055709,30.237463,0 -104.055491,30.237970,0 -104.055273,30.238477,0 -104.055055,30.238984,0 -104.054837,30.239491,0 -104.054620,30.239998,0 -104.054402,30.240506,0 -104.054184,30.241013,0 -104.053966,30.241520,0 -104.053748,30.242027,0 -104.053531,30.242534,0 -104.053313,30.243041,0 -104.053096,30.243549,0 -104.052880,30.244056,0 -104.052665,30.244564,0 -104.052449,30.245072,0 -104.052233,30.245580,0 -104.052018,30.246088,0 -104.051802,30.246596,0 -104.051587,30.247103,0 -104.051371,30.247611,0 -104.051155,30.248119,0 -104.050940,30.248627,0 -104.050726,30.249135,0 -104.050510,30.249643,0 -104.050292,30.250150,0 -104.050074,30.250657,0 -104.049856,30.251164,0 -104.049638,30.251671,0 -104.049420,30.252178,0 -104.049202,30.252685,0 -104.048984,30.253193,0 -104.048766,30.253700,0 -104.048548,30.254207,0 -104.048330,30.254714,0 -104.048112,30.255221,0 -104.047894,30.255728,0 -104.047676,30.256235,0 -104.047458,30.256742,0 -104.047240,30.257249,0 -104.047022,30.257756,0 -104.046804,30.258263,0 -104.046586,30.258770,0 -104.046368,30.259277,0 -104.046150,30.259785,0 -104.045932,30.260292,0 -104.045714,30.260799,0 -104.045496,30.261306,0 -104.045278,30.261813,0 -104.045060,30.262320,0 -104.044842,30.262827,0 -104.044624,30.263334,0 -104.044407,30.263841,0 -104.044196,30.264351,0 -104.043974,30.264857,0 -104.043746,30.265360,0 -104.043526,30.265867,0 -104.043271,30.266360,0 -104.043004,30.266849,0 -104.042729,30.267335,0 -104.042421,30.267806,0 -104.042095,30.268267,0 -104.041753,30.268720,0 -104.041406,30.269169,0 -104.041055,30.269617,0 -104.040704,30.270064,0 -104.040353,30.270511,0 -104.040001,30.270958,0 -104.039650,30.271405,0 -104.039299,30.271852,0 -104.038948,30.272300,0 -104.038598,30.272748,0 -104.038250,30.273197,0 -104.037903,30.273646,0 -104.037555,30.274096,0 -104.037204,30.274543,0 -104.036851,30.274989,0 -104.036498,30.275435,0 -104.036145,30.275882,0 -104.035792,30.276328,0 -104.035439,30.276774,0 -104.035086,30.277220,0 -104.034733,30.277666,0 -104.034380,30.278112,0 -104.034027,30.278558,0 -104.033674,30.279005,0 -104.033321,30.279451,0 -104.032968,30.279897,0 -104.032615,30.280343,0 -104.032262,30.280789,0 -104.031908,30.281235,0 -104.031555,30.281681,0 -104.031202,30.282128,0 -104.030849,30.282574,0 -104.030496,30.283020,0 -104.030143,30.283466,0 -104.029790,30.283912,0 -104.029437,30.284358,0 -104.029084,30.284804,0 -104.028731,30.285250,0 -104.028378,30.285697,0 -104.028024,30.286143,0 -104.027671,30.286589,0 -104.027318,30.287035,0 -104.026965,30.287481,0 -104.026612,30.287927,0 -104.026259,30.288373,0 -104.025906,30.288819,0 -104.025556,30.289268,0 -104.025230,30.289729,0 -104.024920,30.290198,0 -104.024631,30.290678,0 -104.024358,30.291165,0 -104.024111,30.291662,0 -104.023885,30.292166,0 -104.023684,30.292678,0 -104.023496,30.293194,0 -104.023312,30.293711,0 -104.023130,30.294229,0 -104.022949,30.294747,0 -104.022767,30.295265,0 -104.022585,30.295782,0 -104.022404,30.296300,0 -104.022222,30.296818,0 -104.022040,30.297336,0 -104.021859,30.297853,0 -104.021677,30.298371,0 -104.021495,30.298889,0 -104.021313,30.299407,0 -104.021130,30.299924,0 -104.020948,30.300442,0 -104.020765,30.300959,0 -104.020583,30.301477,0 -104.020400,30.301994,0 -104.020218,30.302512,0 -104.020035,30.303029,0 -104.019853,30.303547,0 -104.019669,30.304064,0 -104.019484,30.304581,0 -104.019330,30.305105,0 -104.019311,30.305645,0 -104.019441,30.306173,0 -104.019624,30.306691,0 -104.019810,30.307207,0 -104.019995,30.307724,0 -104.020180,30.308241,0 -104.020365,30.308758,0 -104.020550,30.309275,0</coordinates></LineString></Placemark></Folder><Folder><name>Visible stretches (labels)</name><Placemark><name>228.9° · 39.6 km</name><styleUrl>#run</styleUrl><description><![CDATA[Chainage 28.98–29.58 km from Shafter end<br>Azimuth 228.93–228.95°, distance 39.9–39.3 km<br>Road elevation 1635–1650 m<br>Clearance at k=0.13: 0.5 to 0.8 m<br>k_crit (headlight): -3.29 to -0.92<br>Apparent elevation 1.00 mrad (0.057°)]]></description><Point><coordinates>-104.192237,30.040099,0</coordinates></Point></Placemark><Placemark><name>229.2° · 38.5 km</name><styleUrl>#run</styleUrl><description><![CDATA[Chainage 30.00–30.66 km from Shafter end<br>Azimuth 229.11–229.36°, distance 38.9–38.2 km<br>Road elevation 1591–1618 m<br>Clearance at k=0.13: 0.4 to 0.8 m<br>k_crit (headlight): -3.14 to -1.69<br>Apparent elevation 0.17 mrad (0.010°)]]></description><Point><coordinates>-104.185508,30.04782,0</coordinates></Point></Placemark><Placemark><name>229.7° · 37.8 km</name><styleUrl>#run</styleUrl><description><![CDATA[Chainage 31.08–31.20 km from Shafter end<br>Azimuth 229.63–229.73°, distance 37.9–37.8 km<br>Road elevation 1570–1573 m<br>Clearance at k=0.13: 0.7 to 0.7 m<br>k_crit (headlight): -2.86 to -0.70<br>Apparent elevation -0.62 mrad (-0.035°)]]></description><Point><coordinates>-104.181845,30.054018,0</coordinates></Point></Placemark><Placemark><name>230.0° · 37.5 km</name><styleUrl>#run</styleUrl><description><![CDATA[Chainage 31.50–31.50 km from Shafter end<br>Azimuth 229.98–229.98°, distance 37.5–37.5 km<br>Road elevation 1575–1575 m<br>Clearance at k=0.13: 0.5 to 0.5 m<br>k_crit (headlight): -1.17 to -1.17<br>Apparent elevation -0.46 mrad (-0.026°)]]></description><Point><coordinates>-104.180779,30.05713,0</coordinates></Point></Placemark><Placemark><name>230.4° · 36.9 km</name><styleUrl>#run</styleUrl><description><![CDATA[Chainage 31.68–32.64 km from Shafter end<br>Azimuth 230.13–230.58°, distance 37.4–36.5 km<br>Road elevation 1557–1579 m<br>Clearance at k=0.13: 0.3 to 0.8 m<br>k_crit (headlight): -2.89 to -0.47<br>Apparent elevation -0.43 mrad (-0.025°)]]></description><Point><coordinates>-104.178154,30.062559,0</coordinates></Point></Placemark><Placemark><name>230.7° · 36.0 km</name><styleUrl>#run</styleUrl><description><![CDATA[Chainage 32.82–33.36 km from Shafter end<br>Azimuth 230.63–230.79°, distance 36.3–35.8 km<br>Road elevation 1544–1556 m<br>Clearance at k=0.13: 0.5 to 0.7 m<br>k_crit (headlight): -2.70 to -1.12<br>Apparent elevation -0.97 mrad (-0.055°)]]></description><Point><coordinates>-104.171756,30.069193,0</coordinates></Point></Placemark><Placemark><name>233.0° · 34.6 km</name><styleUrl>#run</styleUrl><description><![CDATA[Chainage 35.16–35.22 km from Shafter end<br>Azimuth 232.99–233.04°, distance 34.7–34.6 km<br>Road elevation 1487–1489 m<br>Clearance at k=0.13: 0.8 to 0.8 m<br>k_crit (headlight): -2.06 to -1.36<br>Apparent elevation -2.64 mrad (-0.151°)]]></description><Point><coordinates>-104.169941,30.086901,0</coordinates></Point></Placemark><Placemark><name>233.1° · 34.5 km</name><styleUrl>#run</styleUrl><description><![CDATA[Chainage 35.34–35.34 km from Shafter end<br>Azimuth 233.13–233.13°, distance 34.5–34.5 km<br>Road elevation 1483–1483 m<br>Clearance at k=0.13: 0.7 to 0.7 m<br>k_crit (headlight): -0.57 to -0.57<br>Apparent elevation -2.74 mrad (-0.157°)]]></description><Point><coordinates>-104.169421,30.087884,0</coordinates></Point></Placemark><Placemark><name>233.4° · 34.2 km</name><styleUrl>#run</styleUrl><description><![CDATA[Chainage 35.70–35.76 km from Shafter end<br>Azimuth 233.41–233.45°, distance 34.2–34.2 km<br>Road elevation 1471–1473 m<br>Clearance at k=0.13: 0.8 to 0.8 m<br>k_crit (headlight): -1.87 to -1.39<br>Apparent elevation -3.06 mrad (-0.175°)]]></description><Point><coordinates>-104.167482,30.091273,0</coordinates></Point></Placemark><Placemark><name>233.6° · 33.7 km</name><styleUrl>#run</styleUrl><description><![CDATA[Chainage 36.06–36.42 km from Shafter end<br>Azimuth 233.54–233.57°, distance 33.9–33.5 km<br>Road elevation 1458–1469 m<br>Clearance at k=0.13: 0.5 to 0.8 m<br>k_crit (headlight): -1.85 to -1.05<br>Apparent elevation -3.18 mrad (-0.182°)]]></description><Point><coordinates>-104.163933,30.09428,0</coordinates></Point></Placemark><Placemark><name>233.6° · 32.9 km</name><styleUrl>#run</styleUrl><description><![CDATA[Chainage 36.90–37.20 km from Shafter end<br>Azimuth 233.62–233.65°, distance 33.0–32.7 km<br>Road elevation 1453–1454 m<br>Clearance at k=0.13: 0.6 to 0.7 m<br>k_crit (headlight): -0.84 to -0.28<br>Apparent elevation -3.57 mrad (-0.204°)]]></description><Point><coordinates>-104.157254,30.099146,0</coordinates></Point></Placemark><Placemark><name>233.9° · 30.9 km</name><styleUrl>#run</styleUrl><description><![CDATA[Chainage 38.04–40.02 km from Shafter end<br>Azimuth 233.75–234.46°, distance 31.9–30.0 km<br>Road elevation 1421–1448 m<br>Clearance at k=0.13: 0.6 to 0.8 m<br>k_crit (headlight): -1.69 to -1.09<br>Apparent elevation -4.15 mrad (-0.238°)]]></description><Point><coordinates>-104.141661,30.11076,0</coordinates></Point></Placemark><Placemark><name>234.6° · 29.8 km</name><styleUrl>#run</styleUrl><description><![CDATA[Chainage 40.14–40.26 km from Shafter end<br>Azimuth 234.54–234.61°, distance 29.9–29.7 km<br>Road elevation 1419–1420 m<br>Clearance at k=0.13: 0.7 to 0.7 m<br>k_crit (headlight): -0.92 to -0.40<br>Apparent elevation -4.62 mrad (-0.264°)]]></description><Point><coordinates>-104.134711,30.119079,0</coordinates></Point></Placemark><Placemark><name>235.2° · 28.9 km</name><styleUrl>#run</styleUrl><description><![CDATA[Chainage 40.86–41.34 km from Shafter end<br>Azimuth 234.99–235.31°, distance 29.2–28.7 km<br>Road elevation 1410–1420 m<br>Clearance at k=0.13: 0.7 to 0.8 m<br>k_crit (headlight): -1.29 to -0.17<br>Apparent elevation -4.73 mrad (-0.271°)]]></description><Point><coordinates>-104.129291,30.12569,0</coordinates></Point></Placemark><Placemark><name>236.7° · 26.8 km</name><styleUrl>#run</styleUrl><description><![CDATA[Chainage 43.26–43.50 km from Shafter end<br>Azimuth 236.66–236.78°, distance 26.9–26.7 km<br>Road elevation 1382–1390 m<br>Clearance at k=0.13: 0.5 to 0.8 m<br>k_crit (headlight): -0.69 to -0.48<br>Apparent elevation -5.94 mrad (-0.340°)]]></description><Point><coordinates>-104.115321,30.142276,0</coordinates></Point></Placemark><Placemark><name>237.0° · 26.2 km</name><styleUrl>#run</styleUrl><description><![CDATA[Chainage 43.62–44.34 km from Shafter end<br>Azimuth 236.84–237.22°, distance 26.6–25.9 km<br>Road elevation 1379–1381 m<br>Clearance at k=0.13: 0.6 to 0.7 m<br>k_crit (headlight): -0.45 to -0.38<br>Apparent elevation -6.26 mrad (-0.359°)]]></description><Point><coordinates>-104.111065,30.146228,0</coordinates></Point></Placemark><Placemark><name>237.3° · 25.7 km</name><styleUrl>#run</styleUrl><description><![CDATA[Chainage 44.46–44.46 km from Shafter end<br>Azimuth 237.29–237.29°, distance 25.7–25.7 km<br>Road elevation 1379–1379 m<br>Clearance at k=0.13: 0.7 to 0.7 m<br>k_crit (headlight): -0.37 to -0.37<br>Apparent elevation -6.31 mrad (-0.362°)]]></description><Point><coordinates>-104.107662,30.149391,0</coordinates></Point></Placemark><Placemark><name>237.7° · 25.1 km</name><styleUrl>#run</styleUrl><description><![CDATA[Chainage 44.76–45.42 km from Shafter end<br>Azimuth 237.45–237.83°, distance 25.5–24.8 km<br>Road elevation 1370–1380 m<br>Clearance at k=0.13: 0.7 to 0.8 m<br>k_crit (headlight): -0.37 to 0.06<br>Apparent elevation -6.61 mrad (-0.379°)]]></description><Point><coordinates>-104.102989,30.153744,0</coordinates></Point></Placemark><Placemark><name>238.2° · 24.2 km</name><styleUrl>#run</styleUrl><description><![CDATA[Chainage 45.84–46.32 km from Shafter end<br>Azimuth 238.08–238.37°, distance 24.4–23.9 km<br>Road elevation 1370–1379 m<br>Clearance at k=0.13: 0.4 to 0.8 m<br>k_crit (headlight): -0.33 to 0.04<br>Apparent elevation -6.53 mrad (-0.374°)]]></description><Point><coordinates>-104.096189,30.160075,0</coordinates></Point></Placemark><Placemark><name>251.9° · 18.1 km</name><styleUrl>#run</styleUrl><description><![CDATA[Chainage 54.06–54.06 km from Shafter end<br>Azimuth 251.88–251.88°, distance 18.1–18.1 km<br>Road elevation 1397–1397 m<br>Clearance at k=0.13: 0.4 to 0.4 m<br>k_crit (headlight): -0.04 to -0.04<br>Apparent elevation -6.70 mrad (-0.384°)]]></description><Point><coordinates>-104.061305,30.224256,0</coordinates></Point></Placemark></Folder></Document></kml>